NORAD_CAT_ID,OBJECT_NAME,OBJECT_TYPE,EPOCH,MEAN_MOTION,ECCENTRICITY,INCLINATION,RA_OF_ASC_NODE,ARG_OF_PERICENTER,MEAN_ANOMALY,BSTAR,MEAN_MOTION_DOT,MEAN_MOTION_DDOT,TLE_LINE0,TLE_LINE1,TLE_LINE2,SEMIMAJOR_AXIS,PERIOD,APOGEE,PERIGEE,DECAYED
53623.0,STARLINK-4573,PAYLOAD,2023-01-30 21:41:51,15.08847648,0.0001049,53.2177,283.755,75.1046,285.0062,-3.716e-05,-8.79e-06,0.0,0 STARLINK-4573,1 53623U 22104AM  23030.90406513 -.00000879  00000-0 -37160-4 0  9991,2 53623  53.2177 283.7550 0001049  75.1046 285.0062 15.08847648 24586,6917.857,95.437,540.448,538.996,0.0
53623.0,STARLINK-4573,PAYLOAD,2023-01-31 02:28:00,15.08853083,0.0001087,53.2179,282.861,85.3436,274.768,-1.4248e-05,-5.15e-06,0.0,0 STARLINK-4573,1 53623U 22104AM  23031.10277944 -.00000515  00000-0 -14248-4 0  9997,2 53623  53.2179 282.8610 0001087  85.3436 274.7680 15.08853083 23932,6917.84,95.437,540.457,538.953,0.0
53623.0,STARLINK-4573,PAYLOAD,2023-01-31 16:46:29,15.08838948,0.0001127,53.218,280.1836,82.9013,277.2107,-1.3454e-06,-3.09e-06,0.0,0 STARLINK-4573,1 53623U 22104AM  23031.69894685 -.00000309  00000-0 -13454-5 0  9998,2 53623  53.2180 280.1836 0001127  82.9013 277.2107 15.08838948 24020,6917.884,95.438,540.528,538.969,0.0
53623.0,STARLINK-4573,PAYLOAD,2023-01-31 23:08:00,15.08841915,0.0001064,53.2179,278.9939,96.2282,263.8832,0.00010036,1.31e-05,0.0,0 STARLINK-4573,1 53623U 22104AM  23031.96390023  .00001310  00000-0  10036-3 0  9997,2 53623  53.2179 278.9939 0001064  96.2282 263.8832 15.08841915 24746,6917.875,95.437,540.476,539.003,0.0
53623.0,STARLINK-4573,PAYLOAD,2023-02-01 02:18:47,15.0884484,0.000111,53.2176,278.3997,91.9864,268.1255,5.12e-05,5.27e-06,0.0,0 STARLINK-4573,1 53623U 22104AM  23032.09638013  .00000527  00000-0  51200-4 0  9994,2 53623  53.2176 278.3997 0001110  91.9864 268.1255 15.08844840 24085,6917.866,95.437,540.498,538.963,0.0
53623.0,STARLINK-4573,PAYLOAD,2023-02-01 22:58:49,15.0883439,0.0001127,53.2169,274.5361,89.1798,270.9323,-0.00011084,-2.051e-05,0.0,0 STARLINK-4573,1 53623U 22104AM  23032.95751503 -.00002051  00000-0 -11084-3 0  9990,2 53623  53.2169 274.5361 0001127  89.1798 270.9323 15.08834390 24214,6917.898,95.438,540.542,538.983,0.0
53623.0,STARLINK-4573,PAYLOAD,2023-02-02 22:49:35,15.08847976,0.0001069,53.2167,270.076,95.1736,264.9378,4.5247e-05,4.33e-06,0.0,0 STARLINK-4573,1 53623U 22104AM  23033.95110076  .00000433  00000-0  45247-4 0  9994,2 53623  53.2167 270.0760 0001069  95.1736 264.9378 15.08847976 24363,6917.856,95.437,540.461,538.981,0.0
53623.0,STARLINK-4573,PAYLOAD,2023-02-03 17:54:12,15.08845633,0.0001212,53.2157,266.5082,105.9489,254.1637,9.4796e-05,1.221e-05,0.0,0 STARLINK-4573,1 53623U 22104AM  23034.74597844  .00001221  00000-0  94796-4 0  9993,2 53623  53.2157 266.5082 0001212 105.9489 254.1637 15.08845633 25160,6917.863,95.437,540.567,538.89,0.0
53623.0,STARLINK-4573,PAYLOAD,2023-02-04 09:48:05,15.08834371,3.98e-05,53.2192,263.5354,84.4121,275.6917,-3.0364e-05,-7.71e-06,0.0,0 STARLINK-4573,1 53623U 22104AM  23035.40839617 -.00000771  00000-0 -30364-4 0  9996,2 53623  53.2192 263.5354 0000398  84.4121 275.6917 15.08834371 24587,6917.898,95.438,540.038,539.487,0.0
53623.0,STARLINK-4573,PAYLOAD,2023-02-04 20:55:46,15.08850615,9.85e-05,53.2168,261.453,88.2642,271.8463,2.2348e-05,6.8e-07,0.0,0 STARLINK-4573,1 53623U 22104AM  23035.87206384  .00000068  00000-0  22348-4 0  9996,2 53623  53.2168 261.4530 0000985  88.2642 271.8463 15.08850615 24656,6917.848,95.437,540.394,539.032,0.0
53623.0,STARLINK-4573,PAYLOAD,2023-02-05 14:25:01,15.08838933,0.0001237,53.218,258.1854,75.9185,284.1944,-2.0487e-06,-3.2e-06,0.0,0 STARLINK-4573,1 53623U 22104AM  23036.60071321 -.00000320  00000-0 -20487-5 0  9995,2 53623  53.2180 258.1854 0001237  75.9185 284.1944 15.08838933 24760,6917.884,95.438,540.604,538.893,0.0
53623.0,STARLINK-4573,PAYLOAD,2023-02-05 22:21:57,15.08835215,0.0001219,53.2163,256.6948,78.9695,281.1434,-2.2511e-05,-6.46e-06,0.0,0 STARLINK-4573,1 53623U 22104AM  23036.93191664 -.00000646  00000-0 -22511-4 0  9994,2 53623  53.2163 256.6948 0001219  78.9695 281.1434 15.08835215 25499,6917.895,95.438,540.603,538.917,0.0
53623.0,STARLINK-4573,PAYLOAD,2023-02-06 20:37:20,15.08848052,0.0001172,53.2163,252.5314,83.2466,276.8659,1.143e-05,-1.06e-06,0.0,0 STARLINK-4573,1 53623U 22104AM  23037.85926631 -.00000106  00000-0  11430-4 0  9994,2 53623  53.2163 252.5314 0001172  83.2466 276.8659 15.08848052 24957,6917.856,95.437,540.532,538.91,0.0
53623.0,STARLINK-4573,PAYLOAD,2023-02-07 20:28:08,15.08832064,0.0001252,53.2163,248.0706,82.9471,277.1664,9.1188e-05,1.163e-05,0.0,0 STARLINK-4573,1 53623U 22104AM  23038.85287307  .00001163  00000-0  91188-4 0  9996,2 53623  53.2163 248.0706 0001252  82.9471 277.1664 15.08832064 25107,6917.905,95.438,540.636,538.904,0.0
53623.0,STARLINK-4573,PAYLOAD,2023-02-08 20:18:55,15.08840224,0.0001184,53.2165,243.6101,90.7054,269.4074,-1.5069e-05,-5.28e-06,0.0,0 STARLINK-4573,1 53623U 22104AM  23039.84647186 -.00000528  00000-0 -15069-4 0  9991,2 53623  53.2165 243.6101 0001184  90.7054 269.4074 15.08840224 25934,6917.88,95.438,540.564,538.926,0.0
53623.0,STARLINK-4573,PAYLOAD,2023-02-09 20:09:42,15.08840038,0.0001065,53.216,239.1498,82.2444,277.8669,-0.00010468,-1.953e-05,0.0,0 STARLINK-4573,1 53623U 22104AM  23040.84007809 -.00001953  00000-0 -10468-3 0  9995,2 53623  53.2160 239.1498 0001065  82.2444 277.8669 15.08840038 25403,6917.88,95.438,540.482,539.009,0.0
53623.0,STARLINK-4573,PAYLOAD,2023-02-09 23:20:28,15.08840268,0.0001124,53.2173,238.5528,76.8315,283.2802,-4.1156e-06,-3.53e-06,0.0,0 STARLINK-4573,1 53623U 22104AM  23040.97255400 -.00000353  00000-0 -41156-5 0  9994,2 53623  53.2173 238.5528 0001124  76.8315 283.2802 15.08840268 26109,6917.88,95.438,540.522,538.967,0.0
53623.0,STARLINK-4573,PAYLOAD,2023-02-10 20:00:29,15.08840406,0.0001082,53.2159,234.6891,79.6178,280.4936,3.6689e-05,2.96e-06,0.0,0 STARLINK-4573,1 53623U 22104AM  23041.83367552  .00000296  00000-0  36689-4 0  9990,2 53623  53.2159 234.6891 0001082  79.6178 280.4936 15.08840406 26239,6917.879,95.438,540.493,538.996,0.0
53623.0,STARLINK-4573,PAYLOAD,2023-02-11 05:32:49,15.08825724,0.0001749,53.2172,232.9025,72.4435,287.6748,-3.0226e-05,-7.69e-06,0.0,0 STARLINK-4573,1 53623U 22104AM  23042.23112959 -.00000769  00000-0 -30226-4 0  9992,2 53623  53.2172 232.9025 0001749  72.4435 287.6748 15.08825724 25618,6917.924,95.438,540.999,538.579,0.0
53623.0,STARLINK-4573,PAYLOAD,2023-02-11 15:05:08,15.08832512,9.39e-05,53.2179,231.1184,73.474,286.6355,-3.1758e-05,-7.93e-06,0.0,0 STARLINK-4573,1 53623U 22104AM  23042.62856512 -.00000793  00000-0 -31758-4 0  9993,2 53623  53.2179 231.1184 0000939  73.4740 286.6355 15.08832512 26350,6917.903,95.438,540.418,539.119,0.0
53623.0,STARLINK-4573,PAYLOAD,2023-02-12 05:23:35,15.08839518,0.0001166,53.2169,228.4425,77.7919,282.3204,3.3743e-05,2.49e-06,0.0,0 STARLINK-4573,1 53623U 22104AM  23043.22471960  .00000249  00000-0  33743-4 0  9990,2 53623  53.2169 228.4425 0001166  77.7919 282.3204 15.08839518 25767,6917.882,95.438,540.553,538.94,0.0
53623.0,STARLINK-4573,PAYLOAD,2023-02-12 13:20:31,15.08832581,0.0001073,53.2182,226.9583,82.2473,277.8641,8.7857e-05,1.11e-05,0.0,0 STARLINK-4573,1 53623U 22104AM  23043.55592276  .00001110  00000-0  87857-4 0  9993,2 53623  53.2182 226.9583 0001073  82.2473 277.8641 15.08832581 26491,6917.903,95.438,540.51,539.026,0.0
53623.0,STARLINK-4573,PAYLOAD,2023-02-13 11:35:55,15.0882946,0.0001036,53.2177,222.7925,94.8213,265.2897,2.1527e-05,5.5e-07,0.0,0 STARLINK-4573,1 53623U 22104AM  23044.48328575  .00000055  00000-0  21527-4 0  9994,2 53623  53.2177 222.7925 0001036  94.8213 265.2897 15.08829460 25955,6917.913,95.438,540.494,539.061,0.0
53623.0,STARLINK-4573,PAYLOAD,2023-02-14 05:05:12,15.08814827,9.51e-05,53.22,219.5219,102.3037,257.8062,-0.00016568,-2.922e-05,0.0,0 STARLINK-4573,1 53623U 22104AM  23045.21194813 -.00002922  00000-0 -16568-3 0  9997,2 53623  53.2200 219.5219 0000951 102.3037 257.8062 15.08814827 26061,6917.957,95.439,540.48,539.164,0.0
53623.0,STARLINK-4573,PAYLOAD,2023-02-14 17:48:16,15.08832301,0.000103,53.217,217.1438,92.8957,267.2153,-2.9574e-06,-3.35e-06,0.0,0 STARLINK-4573,1 53623U 22104AM  23045.74185666 -.00000335  00000-0 -29574-5 0  9990,2 53623  53.2170 217.1438 0001030  92.8957 267.2153 15.08832301 26149,6917.904,95.438,540.481,539.056,0.0
53623.0,STARLINK-4573,PAYLOAD,2023-02-14 20:59:02,15.08840581,8.27e-05,53.217,216.5496,86.3462,273.7625,1.6835e-05,-2e-07,0.0,0 STARLINK-4573,1 53623U 22104AM  23045.87433057 -.00000020  00000-0  16835-4 0  9999,2 53623  53.2170 216.5496 0000827  86.3462 273.7625 15.08840581 26165,6917.879,95.438,540.316,539.172,0.0
53623.0,STARLINK-4573,PAYLOAD,2023-02-15 04:55:57,15.08851253,8.2e-05,53.2174,215.0624,83.1517,276.9568,6.354e-05,7.24e-06,0.0,0 STARLINK-4573,1 53623U 22104AM  23046.20552191  .00000724  00000-0  63540-4 0  9993,2 53623  53.2174 215.0624 0000820  83.1517 276.9568 15.08851253 26210,6917.846,95.437,540.278,539.144,0.0
53623.0,STARLINK-4573,PAYLOAD,2023-02-15 11:17:29,15.08849329,7.03e-05,53.2173,213.8727,94.0825,266.0247,0.00021882,3.197e-05,0.0,0 STARLINK-4573,1 53623U 22104AM  23046.47047696  .00003197  00000-0  21882-3 0  9990,2 53623  53.2173 213.8727 0000703  94.0825 266.0247 15.08849329 26936,6917.852,95.437,540.203,539.231,0.0
53623.0,STARLINK-4573,PAYLOAD,2023-02-15 20:49:46,15.0887674,8.97e-05,53.2171,212.0901,81.8443,278.265,0.00023207,3.411e-05,0.0,0 STARLINK-4573,1 53623U 22104AM  23046.86789572  .00003411  00000-0  23207-3 0  9991,2 53623  53.2171 212.0901 0000897  81.8443 278.2650 15.08876740 26315,6917.768,95.435,540.254,539.013,0.0
53623.0,STARLINK-4573,PAYLOAD,2023-02-16 11:08:17,15.08835423,6.54e-05,53.2171,209.4127,110.8033,249.3029,4.5484e-05,4.36e-06,0.0,0 STARLINK-4573,1 53623U 22104AM  23047.46408851  .00000436  00000-0  45484-4 0  9992,2 53623  53.2171 209.4127 0000654 110.8033 249.3029 15.08835423 26406,6917.894,95.438,540.212,539.307,0.0
